KNACKSAT-2              
1 67683U 98067XZ  26168.60673955  .00040994  00000+0  49993-3 0  9996
2 67683  51.6314 292.3670 0009088 217.1010 142.9356 15.60014370 20344
INNOSAT 3 (RS92S0)      
1 64894U 25155U   26169.60891571  .00030683  00000+0  67491-3 0  9999
2 64894  97.4490 141.1389 0006800 147.6902 212.4763 15.43910415 81182
